NORAD_CAT_ID,OBJECT_NAME,OBJECT_TYPE,EPOCH,MEAN_MOTION,ECCENTRICITY,INCLINATION,RA_OF_ASC_NODE,ARG_OF_PERICENTER,MEAN_ANOMALY,BSTAR,MEAN_MOTION_DOT,MEAN_MOTION_DDOT,TLE_LINE0,TLE_LINE1,TLE_LINE2,SEMIMAJOR_AXIS,PERIOD,APOGEE,PERIGEE,DECAYED
48148,STARLINK-2491,PAYLOAD,2022-02-14 13:33:12,15.06384614,0.0001511,53.0556,354.1273,65.9762,294.1385,0.00081825,0.00011922,0.0,0 STARLINK-2491,1 48148U 21027BJ  22045.56472553  .00011922  00000-0  81825-3 0  9999,2 48148  53.0556 354.1273 0001511  65.9762 294.1385 15.06384614 48719,6925.396,95.59299999999999,548.307,546.214,0.0
48148,STARLINK-2491,PAYLOAD,2022-02-15 13:26:17,15.06408537,0.0001619,53.0558,349.6599,65.7043,294.4115,0.00073555,0.00010694,0.0,0 STARLINK-2491,1 48148U 21027BJ  22046.55992761  .00010694  00000-0  73555-3 0  9993,2 48148  53.0558 349.6599 0001619  65.7043 294.4115 15.06408537 48861,6925.321999999999,95.59200000000001,548.309,546.066,0.0
48148,STARLINK-2491,PAYLOAD,2022-02-15 18:12:54,15.06397531,0.00015730000000000006,53.0558,348.7663,69.6452,290.4706,0.00013401,1.715e-05,0.0,0 STARLINK-2491,1 48148U 21027BJ  22046.75896957  .00001715  00000-0  13401-3 0  9993,2 48148  53.0558 348.7663 0001573  69.6452 290.4706 15.06397531 48503,6925.356,95.59200000000001,548.31,546.132,0.0
48148,STARLINK-2491,PAYLOAD,2022-02-16 13:19:23,15.06405905,0.00016969999999999998,53.0564,345.1931,67.2628,292.8540000000001,0.00035771,5.051e-05,0.0,0 STARLINK-2491,1 48148U 21027BJ  22047.55513095  .00005051  00000-0  35771-3 0  9992,2 48148  53.0564 345.1931 0001697  67.2628 292.8540 15.06405905 49019,6925.33,95.59200000000001,548.371,546.02,0.0
48148,STARLINK-2491,PAYLOAD,2022-02-17 02:03:41,15.06417214,0.0001661,53.0547,342.8111,64.6431,295.473,0.00071722,0.00010422,0.0,0 STARLINK-2491,1 48148U 21027BJ  22048.08590059  .00010422  00000-0  71722-3 0  9990,2 48148  53.0547 342.8111 0001661  64.6431 295.4730 15.06417214 48709,6925.2959999999985,95.59100000000001,548.311,546.011,0.0
48148,STARLINK-2491,PAYLOAD,2022-02-17 05:14:46,15.06406365,0.00017819999999999994,53.0547,342.2167,67.1132,293.0045,0.00021223,2.881e-05,0.0,0 STARLINK-2491,1 48148U 21027BJ  22048.21859599  .00002881  00000-0  21223-3 0  9993,2 48148  53.0547 342.2167 0001782  67.1132 293.0045 15.06406365 48724,6925.329000000002,95.59200000000001,548.428,545.96,0.0
48148,STARLINK-2491,PAYLOAD,2022-02-18 05:07:51,15.06418671,0.0001657,53.0542,337.7475,64.7323,295.3837,0.00042766,6.097e-05,0.0,0 STARLINK-2491,1 48148U 21027BJ  22049.21378843  .00006097  00000-0  42766-3 0  9990,2 48148  53.0542 337.7475 0001657  64.7323 295.3837 15.06418671 49263,6925.291,95.59100000000001,548.304,546.009,0.0
48148,STARLINK-2491,PAYLOAD,2022-02-18 19:27:42,15.06408217,0.0001587,53.053999999999995,335.0661,67.5007,292.615,0.00019111,2.567e-05,0.0,0 STARLINK-2491,1 48148U 21027BJ  22049.81090878  .00002567  00000-0  19111-3 0  9991,2 48148  53.0540 335.0661 0001587  67.5007 292.6150 15.06408217 48960,6925.323,95.59200000000001,548.2869999999998,546.089,0.0
48148,STARLINK-2491,PAYLOAD,2022-02-19 01:49:52,15.06402704,0.0001771,53.0538,333.8746,62.6748,297.4421,0.00015189,1.982e-05,0.0,0 STARLINK-2491,1 48148U 21027BJ  22050.07629954  .00001982  00000-0  15189-3 0  9995,2 48148  53.0538 333.8746 0001771  62.6748 297.4421 15.06402704 49005,6925.34,95.59200000000001,548.432,545.979,0.0
48148,STARLINK-2491,PAYLOAD,2022-02-19 11:23:06,15.06396829,0.00020329999999999998,53.0537,332.0891,67.2656,292.8547,-3.8869e-06,-3.4e-06,0.0,0 STARLINK-2491,1 48148U 21027BJ  22050.47438269 -.00000340  00000-0 -38869-5 0  9997,2 48148  53.0537 332.0891 0002033  67.2656 292.8547 15.06396829 49454,6925.358,95.59200000000001,548.631,545.815,0.0
48148,STARLINK-2491,PAYLOAD,2022-02-20 11:16:11,15.06410438,0.000175,53.0532,327.6205,67.5719,292.5455,0.00066193,9.594e-05,0.0,0 STARLINK-2491,1 48148U 21027BJ  22051.46958057  .00009594  00000-0  66193-3 0  9996,2 48148  53.0532 327.6205 0001750  67.5719 292.5455 15.06410438 49218,6925.316999999999,95.59100000000001,548.393,545.97,0.0
48148,STARLINK-2491,PAYLOAD,2022-02-20 17:38:20,15.06414694,0.0001756,53.0532,326.4291,67.7995,292.318,0.00058879,8.503e-05,0.0,0 STARLINK-2491,1 48148U 21027BJ  22051.73496508  .00008503  00000-0  58879-3 0  9995,2 48148  53.0532 326.4291 0001756  67.7995 292.3180 15.06414694 49642,6925.304,95.59100000000001,548.385,545.952,0.0
48148,STARLINK-2491,PAYLOAD,2022-02-21 03:11:35,15.06402581,0.0001742,53.0532,324.6415,67.1298,292.9875,0.00010459,1.277e-05,0.0,0 STARLINK-2491,1 48148U 21027BJ  22052.13304768  .00001277  00000-0  10459-3 0  9999,2 48148  53.0532 324.6415 0001742  67.1298 292.9875 15.06402581 49318,6925.3409999999985,95.59200000000001,548.4119999999998,545.999,0.0
48148,STARLINK-2491,PAYLOAD,2022-02-21 11:09:17,15.063916899999999,0.0001682,53.0532,323.1522,66.9166,293.2,-0.00012509999999999998,-2.144e-05,0.0,0 STARLINK-2491,1 48148U 21027BJ  22052.46478569 -.00002144  00000-0 -12510-3 0  9992,2 48148  53.0532 323.1522 0001682  66.9166 293.2000 15.06391690 49362,6925.374,95.59299999999999,548.404,546.0740000000002,0.0
48148,STARLINK-2491,PAYLOAD,2022-02-21 22:18:04,15.06394481,0.0001751,53.052,321.0668,70.1891,289.9286,2.2675e-05,5.6e-07,0.0,0 STARLINK-2491,1 48148U 21027BJ  22052.92921484  .00000056  00000-0  22675-4 0  9994,2 48148  53.0520 321.0668 0001751  70.1891 289.9286 15.06394481 49826,6925.365,95.59200000000001,548.443,546.018,0.0
48148,STARLINK-2491,PAYLOAD,2022-02-22 11:02:23,15.06380135,0.0001689,53.0529,318.6847,67.3196,292.7971,-0.00020964,-3.401e-05,0.0,0 STARLINK-2491,1 48148U 21027BJ  22053.45999951 -.00003401  00000-0 -20964-3 0  9994,2 48148  53.0529 318.6847 0001689  67.3196 292.7971 15.06380135 49512,6925.409000000002,95.59299999999999,548.444,546.105,0.0
48148,STARLINK-2491,PAYLOAD,2022-02-23 10:55:30,15.06390389,0.0001646,53.0531,314.2168,65.8427,294.2734,0.0001237,1.561e-05,0.0,0 STARLINK-2491,1 48148U 21027BJ  22054.45520857  .00001561  00000-0  12370-3 0  9995,2 48148  53.0531 314.2168 0001646  65.8427 294.2734 15.06390389 49668,6925.378000000002,95.59299999999999,548.383,546.1030000000002,0.0
48148,STARLINK-2491,PAYLOAD,2022-02-23 20:28:44,15.06392574,0.0001649,53.0532,312.4297,65.6468,294.4693,0.00026132,3.612e-05,0.0,0 STARLINK-2491,1 48148U 21027BJ  22054.85329219  .00003612  00000-0  26132-3 0  9998,2 48148  53.0532 312.4297 0001649  65.6468 294.4693 15.06392574 50114,6925.371,95.59299999999999,548.378,546.094,0.0
48148,STARLINK-2491,PAYLOAD,2022-02-24 04:26:26,15.06401729,0.0001413,53.0528,310.9394,86.943,273.1721,0.00046548,6.659e-05,0.0,0 STARLINK-2491,1 48148U 21027BJ  22055.18502473  .00006659  00000-0  46548-3 0  9997,2 48148  53.0528 310.9394 0001413  86.9430 273.1721 15.06401729 50168,6925.343000000003,95.59200000000001,548.187,546.23,0.0
48148,STARLINK-2491,PAYLOAD,2022-02-24 21:57:22,15.06397802,0.0001604,53.0529,307.6635,68.2913,291.8247,0.00014389,1.862e-05,0.0,0 STARLINK-2491,1 48148U 21027BJ  22055.91484223  .00001862  00000-0  14389-3 0  9999,2 48148  53.0529 307.6635 0001604  68.2913 291.8247 15.06397802 49884,6925.355,95.59200000000001,548.331,546.109,0.0
48148,STARLINK-2491,PAYLOAD,2022-02-25 02:43:59,15.06397207,0.0001606,53.0529,306.7701,68.6657,291.4504,0.00013067,1.665e-05,0.0,0 STARLINK-2491,1 48148U 21027BJ  22056.11388311  .00001665  00000-0  13067-3 0  9996,2 48148  53.0529 306.7701 0001606  68.6657 291.4504 15.06397207 50309,6925.357,95.59200000000001,548.3340000000002,546.11,0.0
48148,STARLINK-2491,PAYLOAD,2022-02-25 21:50:27,15.06406619,0.00016219999999999999,53.0529,303.1959,70.7844,289.332,0.00018531,2.48e-05,0.0,0 STARLINK-2491,1 48148U 21027BJ  22056.91003934  .00002480  00000-0  18531-3 0  9996,2 48148  53.0529 303.1959 0001622  70.7844 289.3320 15.06406619 50428,6925.328,95.59200000000001,548.317,546.07,0.0
48148,STARLINK-2491,PAYLOAD,2022-02-26 02:37:04,15.063971300000002,0.00016669999999999999,53.0529,302.3027,70.1352,289.9817,-6.2844e-06,-3.75e-06,0.0,0 STARLINK-2491,1 48148U 21027BJ  22057.10908425 -.00000375  00000-0 -62844-5 0  9998,2 48148  53.0529 302.3027 0001667  70.1352 289.9817 15.06397130 50066,6925.357,95.59200000000001,548.377,546.068,0.0
48148,STARLINK-2491,PAYLOAD,2022-02-26 21:43:33,15.06394753,0.00017230000000000001,53.0528,298.7286,69.8626,290.2549,6.2426e-05,6.48e-06,0.0,0 STARLINK-2491,1 48148U 21027BJ  22057.90524907  .00000648  00000-0  62426-4 0  9991,2 48148  53.0528 298.7286 0001723  69.8626 290.2549 15.06394753 50573,6925.365,95.59200000000001,548.423,546.036,0.0
48148,STARLINK-2491,PAYLOAD,2022-02-27 08:52:19,15.06400826,0.0001726,53.0526,296.6437,70.376,289.7415,0.00014094,1.818e-05,0.0,0 STARLINK-2491,1 48148U 21027BJ  22058.36967551  .00001818  00000-0  14094-3 0  9995,2 48148  53.0526 296.6437 0001726  70.3760 289.7415 15.06400826 50254,6925.346,95.59200000000001,548.406,546.016,0.0
48148,STARLINK-2491,PAYLOAD,2022-02-27 21:36:38,15.06408532,0.0001819,53.0524,294.2608,74.9424,285.1766,0.00027515,3.82e-05,0.0,0 STARLINK-2491,1 48148U 21027BJ  22058.90044707  .00003820  00000-0  27515-3 0  9991,2 48148  53.0524 294.2608 0001819  74.9424 285.1766 15.06408532 50729,6925.321999999999,95.59200000000001,548.447,545.928,0.0
48148,STARLINK-2491,PAYLOAD,2022-02-28 03:58:48,15.06410469,0.0001829,53.0523,293.0694,74.5774,285.5417,0.00037289999999999996,5.279e-05,0.0,0 STARLINK-2491,1 48148U 21027BJ  22059.16583356  .00005279  00000-0  37290-3 0  9999,2 48148  53.0523 293.0694 0001829  74.5774 285.5417 15.06410469 50768,6925.316,95.59100000000001,548.448,545.915,0.0
48148,STARLINK-2491,PAYLOAD,2022-02-28 19:54:11,15.06403484,0.00017930000000000002,53.0521,290.0907,72.7083,287.4102,0.00015804,2.073e-05,0.0,0 STARLINK-2491,1 48148U 21027BJ  22059.82930234  .00002073  00000-0  15804-3 0  9999,2 48148  53.0521 290.0907 0001793  72.7083 287.4102 15.06403484 50472,6925.3380000000025,95.59200000000001,548.445,545.961,0.0
